$$SOE
2461302.500000000, A.D. 2026-Sep-19 00:00:00.0000, 2.292960351182081E+09, 5.415356956450205E+09, -2.555684070984514E+08,
2461309.500000000, A.D. 2026-Sep-26 00:00:00.0000, 2.290021339326595E+09, 5.416268437759778E+09, -2.556157868156302E+08,
2461316.500000000, A.D. 2026-Oct-03 00:00:00.0000, 2.287081806595789E+09, 5.417178573871520E+09, -2.556631054435329E+08,
2461323.500000000, A.D. 2026-Oct-10 00:00:00.0000, 2.284141753308723E+09, 5.418087362255870E+09, -2.557103629242532E+08,
2461330.500000000, A.D. 2026-Oct-17 00:00:00.0000, 2.281201180165893E+09, 5.418994800248550E+09, -2.557575592237220E+08,
2461337.500000000, A.D. 2026-Oct-24 00:00:00.0000, 2.278260088187378E+09, 5.419900885023611E+09, -2.558046943338931E+08,
2461344.500000000, A.D. 2026-Oct-31 00:00:00.0000, 2.275318478739222E+09, 5.420805613403752E+09, -2.558517682969751E+08,
2461351.500000000, A.D. 2026-Nov-07 00:00:00.0000, 2.272376353987072E+09, 5.421708981582007E+09, -2.558987812765720E+08,
2461358.500000000, A.D. 2026-Nov-14 00:00:00.0000, 2.269433717977983E+09, 5.422610985642223E+09, -2.559457336214414E+08,
2461365.500000000, A.D. 2026-Nov-21 00:00:00.0000, 2.266490576538621E+09, 5.423511623560198E+09, -2.559926256997485E+08,
2461372.500000000, A.D. 2026-Nov-28 00:00:00.0000, 2.263546934991773E+09, 5.424410895677419E+09, -2.560394576578231E+08,
2461379.500000000, A.D. 2026-Dec-05 00:00:00.0000, 2.260602797310712E+09, 5.425308802991076E+09, -2.560862294887645E+08,
2461386.500000000, A.D. 2026-Dec-12 00:00:00.0000, 2.257658166876319E+09, 5.426205346371331E+09, -2.561329411714847E+08,
2461393.500000000, A.D. 2026-Dec-19 00:00:00.0000, 2.254713046949725E+09, 5.427100526712259E+09, -2.561795927063053E+08,
2461400.500000000, A.D. 2026-Dec-26 00:00:00.0000, 2.251767440718017E+09, 5.427994345148410E+09, -2.562261841047781E+08,
2461407.500000000, A.D. 2027-Jan-02 00:00:00.0000, 2.248821351188610E+09, 5.428886803145927E+09, -2.562727153744426E+08,
2461414.500000000, A.D. 2027-Jan-09 00:00:00.0000, 2.245874781048590E+09, 5.429777902488236E+09, -2.563191865074897E+08,
2461421.500000000, A.D. 2027-Jan-16 00:00:00.0000, 2.242927732523339E+09, 5.430667645164915E+09, -2.563655974757645E+08,
2461428.500000000, A.D. 2027-Jan-23 00:00:00.0000, 2.239980207279006E+09, 5.431556033123880E+09, -2.564119482395442E+08,
2461435.500000000, A.D. 2027-Jan-30 00:00:00.0000, 2.237032206554956E+09, 5.432443067838955E+09, -2.564582387912648E+08,
2461442.500000000, A.D. 2027-Feb-06 00:00:00.0000, 2.234083731949296E+09, 5.433328750032668E+09, -2.565044692454295E+08,
2461449.500000000, A.D. 2027-Feb-13 00:00:00.0000, 2.231134786395580E+09, 5.434213080773852E+09, -2.565506398329539E+08,
2461456.500000000, A.D. 2027-Feb-20 00:00:00.0000, 2.228185372965524E+09, 5.435096063158907E+09, -2.565967506479480E+08,
2461463.500000000, A.D. 2027-Feb-27 00:00:00.0000, 2.225235492892680E+09, 5.435977701363059E+09, -2.566428015378060E+08,
2461470.500000000, A.D. 2027-Mar-06 00:00:00.0000, 2.222285145834577E+09, 5.436857998984140E+09, -2.566887922564883E+08,
2461477.500000000, A.D. 2027-Mar-13 00:00:00.0000, 2.219334330772776E+09, 5.437736958728358E+09, -2.567347225669386E+08,
2461484.500000000, A.D. 2027-Mar-20 00:00:00.0000, 2.216383046421290E+09, 5.438614582603402E+09, -2.567805922574353E+08,
2461491.500000000, A.D. 2027-Mar-27 00:00:00.0000, 2.213431291345321E+09, 5.439490872069946E+09, -2.568264011354113E+08,
2461498.500000000, A.D. 2027-Apr-03 00:00:00.0000, 2.210479063993222E+09, 5.440365828103830E+09, -2.568721490213597E+08,
2461505.500000000, A.D. 2027-Apr-10 00:00:00.0000, 2.207526362702917E+09, 5.441239451191944E+09, -2.569178357466297E+08,
2461512.500000000, A.D. 2027-Apr-17 00:00:00.0000, 2.204573185704863E+09, 5.442111741247552E+09, -2.569634611583583E+08,
2461519.500000000, A.D. 2027-Apr-24 00:00:00.0000, 2.201619531200760E+09, 5.442982697382846E+09, -2.570090251439006E+08,
2461526.500000000, A.D. 2027-May-01 00:00:00.0000, 2.198665397817647E+09, 5.443852317566588E+09, -2.570545276999857E+08,
2461533.500000000, A.D. 2027-May-08 00:00:00.0000, 2.195710785744774E+09, 5.444720598915196E+09, -2.570999690136015E+08,
2461540.500000000, A.D. 2027-May-15 00:00:00.0000, 2.192755697056386E+09, 5.445587539570724E+09, -2.571453493393991E+08,
2461547.500000000, A.D. 2027-May-22 00:00:00.0000, 2.189800133656543E+09, 5.446453139574144E+09, -2.571906687419400E+08,
2461554.500000000, A.D. 2027-May-29 00:00:00.0000, 2.186844096201914E+09, 5.447317399265654E+09, -2.572359271304986E+08,
2461561.500000000, A.D. 2027-Jun-05 00:00:00.0000, 2.183887584887377E+09, 5.448180318343769E+09, -2.572811244115593E+08,
2461568.500000000, A.D. 2027-Jun-12 00:00:00.0000, 2.180930600086901E+09, 5.449041896015001E+09, -2.573262605394709E+08,
2461575.500000000, A.D. 2027-Jun-19 00:00:00.0000, 2.177973142518689E+09, 5.449902131299091E+09, -2.573713355111766E+08,
2461582.500000000, A.D. 2027-Jun-26 00:00:00.0000, 2.175015213213985E+09, 5.450761023228510E+09, -2.574163493518157E+08,
2461589.500000000, A.D. 2027-Jul-03 00:00:00.0000, 2.172056813421702E+09, 5.451618570950501E+09, -2.574613021024287E+08,
2461596.500000000, A.D. 2027-Jul-10 00:00:00.0000, 2.169097944485684E+09, 5.452474773740405E+09, -2.575061938121889E+08,
2461603.500000000, A.D. 2027-Jul-17 00:00:00.0000, 2.166138607730962E+09, 5.453329630887383E+09, -2.575510245414193E+08,
2461610.500000000, A.D. 2027-Jul-24 00:00:00.0000, 2.163178804515440E+09, 5.454183141389767E+09, -2.575957943946352E+08,
2461617.500000000, A.D. 2027-Jul-31 00:00:00.0000, 2.160218536858420E+09, 5.455035303695516E+09, -2.576405036018665E+08,
2461624.500000000, A.D. 2027-Aug-07 00:00:00.0000, 2.157257808445275E+09, 5.455886116639534E+09, -2.576851525355461E+08,
2461631.500000000, A.D. 2027-Aug-14 00:00:00.0000, 2.154296623707108E+09, 5.456735581324515E+09, -2.577297414725120E+08,
2461638.500000000, A.D. 2027-Aug-21 00:00:00.0000, 2.151334985593662E+09, 5.457583700581162E+09, -2.577742704327102E+08,
2461645.500000000, A.D. 2027-Aug-28 00:00:00.0000, 2.148372895470504E+09, 5.458430477210958E+09, -2.578187393109906E+08,
2461652.500000000, A.D. 2027-Sep-04 00:00:00.0000, 2.145410353959361E+09, 5.459275913513829E+09, -2.578631479892833E+08,
2461659.500000000, A.D. 2027-Sep-11 00:00:00.0000, 2.142447361326291E+09, 5.460120011439387E+09, -2.579074963554308E+08,
2461666.500000000, A.D. 2027-Sep-18 00:00:00.0000, 2.139483917550854E+09, 5.460962772711678E+09, -2.579517842942734E+08,
2461673.500000000, A.D. 2027-Sep-25 00:00:00.0000, 2.136520022305170E+09, 5.461804198850006E+09, -2.579960116785686E+08,
2461680.500000000, A.D. 2027-Oct-02 00:00:00.0000, 2.133555674917912E+09, 5.462644291113803E+09, -2.580401783646667E+08,
2461687.500000000, A.D. 2027-Oct-09 00:00:00.0000, 2.130590874345767E+09, 5.463483050367356E+09, -2.580842841956103E+08,
2461694.500000000, A.D. 2027-Oct-16 00:00:00.0000, 2.127625619215606E+09, 5.464320476809986E+09, -2.581283290221519E+08,
2461701.500000000, A.D. 2027-Oct-23 00:00:00.0000, 2.124659908197402E+09, 5.465156569566362E+09, -2.581723127662065E+08,
2461708.500000000, A.D. 2027-Oct-30 00:00:00.0000, 2.121693741082719E+09, 5.465991326747641E+09, -2.582162355113442E+08,
2461715.500000000, A.D. 2027-Nov-06 00:00:00.0000, 2.118727119405462E+09, 5.466824747111825E+09, -2.582600974215312E+08,
2461722.500000000, A.D. 2027-Nov-13 00:00:00.0000, 2.115760044619527E+09, 5.467656831247400E+09, -2.583038984757745E+08,
2461729.500000000, A.D. 2027-Nov-20 00:00:00.0000, 2.112792516735268E+09, 5.468487580094521E+09, -2.583476384634585E+08,
2461736.500000000, A.D. 2027-Nov-27 00:00:00.0000, 2.109824535032376E+09, 5.469316993768312E+09, -2.583913171464396E+08,
2461743.500000000, A.D. 2027-Dec-04 00:00:00.0000, 2.106856098825638E+09, 5.470145071598347E+09, -2.584349343275893E+08,
2461750.500000000, A.D. 2027-Dec-11 00:00:00.0000, 2.103887207733002E+09, 5.470971812420349E+09, -2.584784898540132E+08,
2461757.500000000, A.D. 2027-Dec-18 00:00:00.0000, 2.100917861720938E+09, 5.471797214781161E+09, -2.585219836077950E+08,
2461764.500000000, A.D. 2027-Dec-25 00:00:00.0000, 2.097948061079063E+09, 5.472621277054915E+09, -2.585654154983046E+08,
2461771.500000000, A.D. 2028-Jan-01 00:00:00.0000, 2.094977806365476E+09, 5.473443997485063E+09, -2.586087854585583E+08,
$$EOE